[
  {
    "OBJECT_NAME": "IRIDIUM 157",
    "OBJECT_ID": "2018-030C",
    "EPOCH": "2023-03-23T10:43:43.175136",
    "MEAN_MOTION": 14.34217438,
    "ECCENTRICITY": 0.0002353,
    "INCLINATION": 86.3941,
    "RA_OF_ASC_NODE": 64.3003,
    "ARG_OF_PERICENTER": 82.7712,
    "MEAN_ANOMALY": 277.3751,
    "EPHEMERIS_TYPE": 0,
    "CLASSIFICATION_TYPE": "U",
    "NORAD_CAT_ID": 43251,
    "ELEMENT_SET_NO": 999,
    "REV_AT_EPOCH": 26075,
    "BSTAR": 0.00012293,
    "MEAN_MOTION_DOT": 3.64e-6,
    "MEAN_MOTION_DDOT": 0
  },
  {
    "OBJECT_NAME": "IRIDIUM 140",
    "OBJECT_ID": "2018-030D",
    "EPOCH": "2023-03-23T11:11:07.342080",
    "MEAN_MOTION": 14.34216855,
    "ECCENTRICITY": 0.0002081,
    "INCLINATION": 86.3942,
    "RA_OF_ASC_NODE": 64.3072,
    "ARG_OF_PERICENTER": 95.4082,
    "MEAN_ANOMALY": 264.7351,
    "EPHEMERIS_TYPE": 0,
    "CLASSIFICATION_TYPE": "U",
    "NORAD_CAT_ID": 43252,
    "ELEMENT_SET_NO": 999,
    "REV_AT_EPOCH": 26081,
    "BSTAR": 0.0003044,
    "MEAN_MOTION_DOT": 8.72e-6,
    "MEAN_MOTION_DDOT": 0
  },
  {
    "OBJECT_NAME": "IRIDIUM 145",
    "OBJECT_ID": "2018-030E",
    "EPOCH": "2023-03-22T21:29:06.987264",
    "MEAN_MOTION": 14.34219686,
    "ECCENTRICITY": 0.0002498,
    "INCLINATION": 86.3939,
    "RA_OF_ASC_NODE": 64.5212,
    "ARG_OF_PERICENTER": 98.5897,
    "MEAN_ANOMALY": 261.5582,
    "EPHEMERIS_TYPE": 0,
    "CLASSIFICATION_TYPE": "U",
    "NORAD_CAT_ID": 43253,
    "ELEMENT_SET_NO": 999,
    "REV_AT_EPOCH": 26066,
    "BSTAR": 8.1635e-5,
    "MEAN_MOTION_DOT": 2.48e-6,
    "MEAN_MOTION_DDOT": 0
  },
  {
    "OBJECT_NAME": "IRIDIUM 146",
    "OBJECT_ID": "2018-030F",
    "EPOCH": "2023-03-23T10:25:27.103872",
    "MEAN_MOTION": 14.34219332,
    "ECCENTRICITY": 0.0002428,
    "INCLINATION": 86.3939,
    "RA_OF_ASC_NODE": 64.3114,
    "ARG_OF_PERICENTER": 93.9272,
    "MEAN_ANOMALY": 266.2201,
    "EPHEMERIS_TYPE": 0,
    "CLASSIFICATION_TYPE": "U",
    "NORAD_CAT_ID": 43254,
    "ELEMENT_SET_NO": 999,
    "REV_AT_EPOCH": 26075,
    "BSTAR": 0.00010073,
    "MEAN_MOTION_DOT": 3.02e-6,
    "MEAN_MOTION_DDOT": 0
  },
  {
    "OBJECT_NAME": "IRIDIUM 148",
    "OBJECT_ID": "2018-030G",
    "EPOCH": "2023-03-23T11:20:15.428256",
    "MEAN_MOTION": 14.34216378,
    "ECCENTRICITY": 0.0002481,
    "INCLINATION": 86.394,
    "RA_OF_ASC_NODE": 64.3215,
    "ARG_OF_PERICENTER": 86.5327,
    "MEAN_ANOMALY": 273.6152,
    "EPHEMERIS_TYPE": 0,
    "CLASSIFICATION_TYPE": "U",
    "NORAD_CAT_ID": 43255,
    "ELEMENT_SET_NO": 999,
    "REV_AT_EPOCH": 26080,
    "BSTAR": 0.00032042,
    "MEAN_MOTION_DOT": 9.17e-6,
    "MEAN_MOTION_DDOT": 0
  },
  {
    "OBJECT_NAME": "IRIDIUM 142",
    "OBJECT_ID": "2018-030H",
    "EPOCH": "2023-03-23T10:34:35.344704",
    "MEAN_MOTION": 14.3421578,
    "ECCENTRICITY": 0.0002273,
    "INCLINATION": 86.394,
    "RA_OF_ASC_NODE": 64.2665,
    "ARG_OF_PERICENTER": 89.101,
    "MEAN_ANOMALY": 271.0446,
    "EPHEMERIS_TYPE": 0,
    "CLASSIFICATION_TYPE": "U",
    "NORAD_CAT_ID": 43256,
    "ELEMENT_SET_NO": 999,
    "REV_AT_EPOCH": 26075,
    "BSTAR": 0.00011965,
    "MEAN_MOTION_DOT": 3.55e-6,
    "MEAN_MOTION_DDOT": 0
  },
  {
    "OBJECT_NAME": "IRIDIUM 150",
    "OBJECT_ID": "2018-030J",
    "EPOCH": "2023-03-22T22:05:39.063264",
    "MEAN_MOTION": 14.34218416,
    "ECCENTRICITY": 0.0002069,
    "INCLINATION": 86.3939,
    "RA_OF_ASC_NODE": 64.5623,
    "ARG_OF_PERICENTER": 93.0721,
    "MEAN_ANOMALY": 267.0712,
    "EPHEMERIS_TYPE": 0,
    "CLASSIFICATION_TYPE": "U",
    "NORAD_CAT_ID": 43257,
    "ELEMENT_SET_NO": 999,
    "REV_AT_EPOCH": 26070,
    "BSTAR": 7.041e-5,
    "MEAN_MOTION_DOT": 2.17e-6,
    "MEAN_MOTION_DDOT": 0
  },
  {
    "OBJECT_NAME": "IRIDIUM 143",
    "OBJECT_ID": "2018-030K",
    "EPOCH": "2023-03-22T21:38:15.154656",
    "MEAN_MOTION": 14.34217469,
    "ECCENTRICITY": 0.0002311,
    "INCLINATION": 86.3942,
    "RA_OF_ASC_NODE": 64.6154,
    "ARG_OF_PERICENTER": 93.7811,
    "MEAN_ANOMALY": 266.3649,
    "EPHEMERIS_TYPE": 0,
    "CLASSIFICATION_TYPE": "U",
    "NORAD_CAT_ID": 43258,
    "ELEMENT_SET_NO": 999,
    "REV_AT_EPOCH": 26063,
    "BSTAR": 7.0651e-5,
    "MEAN_MOTION_DOT": 2.18e-6,
    "MEAN_MOTION_DDOT": 0
  },
  {
    "OBJECT_NAME": "IRIDIUM 161",
    "OBJECT_ID": "2018-047C",
    "EPOCH": "2023-03-22T20:53:06.463680",
    "MEAN_MOTION": 14.43275536,
    "ECCENTRICITY": 0.0001938,
    "INCLINATION": 86.4517,
    "RA_OF_ASC_NODE": 222.519,
    "ARG_OF_PERICENTER": 99.3321,
    "MEAN_ANOMALY": 260.8099,
    "EPHEMERIS_TYPE": 0,
    "CLASSIFICATION_TYPE": "U",
    "NORAD_CAT_ID": 43478,
    "ELEMENT_SET_NO": 999,
    "REV_AT_EPOCH": 25460,
    "BSTAR": 0.00021786,
    "MEAN_MOTION_DOT": 7.53e-6,
    "MEAN_MOTION_DDOT": 0
  },
  {
    "OBJECT_NAME": "IRIDIUM 152",
    "OBJECT_ID": "2018-047D",
    "EPOCH": "2023-03-23T02:00:22.200192",
    "MEAN_MOTION": 14.34216348,
    "ECCENTRICITY": 0.0002254,
    "INCLINATION": 86.3993,
    "RA_OF_ASC_NODE": 222.2925,
    "ARG_OF_PERICENTER": 97.5835,
    "MEAN_ANOMALY": 262.5617,
    "EPHEMERIS_TYPE": 0,
    "CLASSIFICATION_TYPE": "U",
    "NORAD_CAT_ID": 43479,
    "ELEMENT_SET_NO": 999,
    "REV_AT_EPOCH": 25306,
    "BSTAR": -1.5973e-5,
    "MEAN_MOTION_DOT": -2.5e-7,
    "MEAN_MOTION_DDOT": 0
  },
  {
    "OBJECT_NAME": "IRIDIUM 147",
    "OBJECT_ID": "2018-047E",
    "EPOCH": "2023-03-23T10:31:49.909440",
    "MEAN_MOTION": 14.34219397,
    "ECCENTRICITY": 0.0002064,
    "INCLINATION": 86.3999,
    "RA_OF_ASC_NODE": 222.129,
    "ARG_OF_PERICENTER": 88.6475,
    "MEAN_ANOMALY": 271.4958,
    "EPHEMERIS_TYPE": 0,
    "CLASSIFICATION_TYPE": "U",
    "NORAD_CAT_ID": 43480,
    "ELEMENT_SET_NO": 999,
    "REV_AT_EPOCH": 25310,
    "BSTAR": 0.00012336,
    "MEAN_MOTION_DOT": 3.65e-6,
    "MEAN_MOTION_DDOT": 0
  },
  {
    "OBJECT_NAME": "IRIDIUM 110",
    "OBJECT_ID": "2018-047F",
    "EPOCH": "2023-03-23T10:40:58.353312",
    "MEAN_MOTION": 14.3422042,
    "ECCENTRICITY": 0.0001792,
    "INCLINATION": 86.4001,
    "RA_OF_ASC_NODE": 222.1872,
    "ARG_OF_PERICENTER": 100.6236,
    "MEAN_ANOMALY": 259.5161,
    "EPHEMERIS_TYPE": 0,
    "CLASSIFICATION_TYPE": "U",
    "NORAD_CAT_ID": 43481,
    "ELEMENT_SET_NO": 999,
    "REV_AT_EPOCH": 25309,
    "BSTAR": 0.00023996,
    "MEAN_MOTION_DOT": 6.92e-6,
    "MEAN_MOTION_DDOT": 0
  },
  {
    "OBJECT_NAME": "IRIDIUM 162",
    "OBJECT_ID": "2018-047G",
    "EPOCH": "2023-03-22T20:44:02.130720",
    "MEAN_MOTION": 14.43273252,
    "ECCENTRICITY": 0.0002096,
    "INCLINATION": 86.4517,
    "RA_OF_ASC_NODE": 222.4278,
    "ARG_OF_PERICENTER": 95.2445,
    "MEAN_ANOMALY": 264.8995,
    "EPHEMERIS_TYPE": 0,
    "CLASSIFICATION_TYPE": "U",
    "NORAD_CAT_ID": 43482,
    "ELEMENT_SET_NO": 999,
    "REV_AT_EPOCH": 25459,
    "BSTAR": 0.00022159,
    "MEAN_MOTION_DOT": 7.65e-6,
    "MEAN_MOTION_DDOT": 0
  },
  {
    "OBJECT_NAME": "IRIDIUM 160",
    "OBJECT_ID": "2018-061A",
    "EPOCH": "2023-03-23T09:22:58.507680",
    "MEAN_MOTION": 14.34220952,
    "ECCENTRICITY": 0.0002414,
    "INCLINATION": 86.4044,
    "RA_OF_ASC_NODE": 190.6368,
    "ARG_OF_PERICENTER": 93.9474,
    "MEAN_ANOMALY": 266.1998,
    "EPHEMERIS_TYPE": 0,
    "CLASSIFICATION_TYPE": "U",
    "NORAD_CAT_ID": 43569,
    "ELEMENT_SET_NO": 999,
    "REV_AT_EPOCH": 24398,
    "BSTAR": 0.00019053,
    "MEAN_MOTION_DOT": 5.53e-6,
    "MEAN_MOTION_DDOT": 0
  }
]