IRIDIUM 157             
1 43251U 18030C   23082.44702749  .00000364  00000+0  12293-3 0  9991
2 43251  86.3941  64.3003 0002353  82.7712 277.3751 14.34217438260753
IRIDIUM 140             
1 43252U 18030D   23082.46605720  .00000872  00000+0  30440-3 0  9993
2 43252  86.3942  64.3072 0002081  95.4082 264.7351 14.34216855260815
IRIDIUM 145             
1 43253U 18030E   23081.89521976  .00000248  00000+0  81635-4 0  9990
2 43253  86.3939  64.5212 0002498  98.5897 261.5582 14.34219686260669
IRIDIUM 146             
1 43254U 18030F   23082.43434148  .00000302  00000+0  10073-3 0  9994
2 43254  86.3939  64.3114 0002428  93.9272 266.2201 14.34219332260756
IRIDIUM 148             
1 43255U 18030G   23082.47240079  .00000917  00000+0  32042-3 0  9999
2 43255  86.3940  64.3215 0002481  86.5327 273.6152 14.34216378260809
IRIDIUM 142             
1 43256U 18030H   23082.44068686  .00000355  00000+0  11965-3 0  9996
2 43256  86.3940  64.2665 0002273  89.1010 271.0446 14.34215780260753
IRIDIUM 150             
1 43257U 18030J   23081.92059101  .00000217  00000+0  70410-4 0  9999
2 43257  86.3939  64.5623 0002069  93.0721 267.0712 14.34218416260700
IRIDIUM 143             
1 43258U 18030K   23081.90156429  .00000218  00000+0  70651-4 0  9997
2 43258  86.3942  64.6154 0002311  93.7811 266.3649 14.34217469260632
IRIDIUM 161             
1 43478U 18047C   23081.87021370  .00000753  00000+0  21786-3 0  9999
2 43478  86.4517 222.5190 0001938  99.3321 260.8099 14.43275536254609
IRIDIUM 152             
1 43479U 18047D   23082.08359028 -.00000025  00000+0 -15973-4 0  9994
2 43479  86.3993 222.2925 0002254  97.5835 262.5617 14.34216348253062
IRIDIUM 147             
1 43480U 18047E   23082.43877210  .00000365  00000+0  12336-3 0  9997
2 43480  86.3999 222.1290 0002064  88.6475 271.4958 14.34219397253103
IRIDIUM 110             
1 43481U 18047F   23082.44511983  .00000692  00000+0  23996-3 0  9998
2 43481  86.4001 222.1872 0001792 100.6236 259.5161 14.34220420253092
IRIDIUM 162             
1 43482U 18047G   23081.86391355  .00000765  00000+0  22159-3 0  9994
2 43482  86.4517 222.4278 0002096  95.2445 264.8995 14.43273252254598
IRIDIUM 160             
1 43569U 18061A   23082.39095495  .00000553  00000+0  19053-3 0  9995
2 43569  86.4044 190.6368 0002414  93.9474 266.1998 14.34220952243984
